start=new Date('2021-09-10T00:00:00.000Z').valueOf();
sats=[{"FILE":"3111873","GP_ID":"184408728","MEAN_ANOMALY":"323.3116","APOAPSIS":"548.297","ECCENTRICITY":"0.00015910","MEAN_MOTION":"15.06405886","RA_OF_ASC_NODE":"221.4404","TIME_SYSTEM":"UTC","OBJECT_ID":"2021-012BG","RCS_SIZE":"LARGE","EPOCH":"2021-09-10T00:00:02.000160","COUNTRY_CODE":"US","INCLINATION":"53.0534","NORAD_CAT_ID":"47674","SITE":"AFETR","EPHEMERIS_TYPE":"0","DECAY_DATE":null,"CLASSIFICATION_TYPE":"U","REV_AT_EPOCH":"361","REF_FRAME":"TEME","BSTAR":"-0.00110080000000","OBJECT_NAME":"STARLINK-2067","CENTER_NAME":"EARTH","TLE_LINE1":"1 47674U 21012BG  21253.00002315 -.00016643  00000-0 -11008-2 0  9992","MEAN_MOTION_DDOT":"0.0000000000000","LAUNCH_DATE":"2021-02-16","PERIAPSIS":"546.094","PERIOD":"95.592","SEMIMAJOR_AXIS":"6925.331","TLE_LINE2":"2 47674  53.0534 221.4404 0001591  66.7872 323.3116 15.06405886  3611","MEAN_ELEMENT_THEORY":"SGP4","MEAN_MOTION_DOT":"-0.00016643","OBJECT_TYPE":"PAYLOAD","ARG_OF_PERICENTER":"66.7872","ELEMENT_SET_NO":"999"},{"LAUNCH_DATE":"2021-02-16","MEAN_MOTION_DDOT":"0.0000000000000","TLE_LINE1":"1 47675U 21012BH  21253.00002315  .00008375  00000-0  58068-3 0  9992","OBJECT_NAME":"STARLINK-2078","CENTER_NAME":"EARTH","BSTAR":"0.00058068000000","REF_FRAME":"TEME","ELEMENT_SET_NO":"999","ARG_OF_PERICENTER":"67.6798","MEAN_MOTION_DOT":"0.00008375","MEAN_ELEMENT_THEORY":"SGP4","OBJECT_TYPE":"PAYLOAD","TLE_LINE2":"2 47675  53.0505 221.4399 0001464  67.6798   2.3809 15.06386053  3616","PERIOD":"95.593","SEMIMAJOR_AXIS":"6925.391","PERIAPSIS":"546.242","TIME_SYSTEM":"UTC","OBJECT_ID":"2021-012BH","RA_OF_ASC_NODE":"221.4399","MEAN_MOTION":"15.06386053","ECCENTRICITY":"0.00014640","APOAPSIS":"548.270","MEAN_ANOMALY":"2.3809","GP_ID":"184409480","FILE":"3111873","REV_AT_EPOCH":"361","CLASSIFICATION_TYPE":"U","EPHEMERIS_TYPE":"0","DECAY_DATE":null,"SITE":"AFETR","NORAD_CAT_ID":"47675","INCLINATION":"53.0505","EPOCH":"2021-09-10T00:00:02.000160","COUNTRY_CODE":"US","RCS_SIZE":"LARGE"},{"LAUNCH_DATE":"2021-02-16","MEAN_MOTION_DDOT":"0.0000000000000","TLE_LINE1":"1 47676U 21012BJ  21253.00002315  .00018246  00000-0  13418-3 0  9991","OBJECT_NAME":"STARLINK-2083","CENTER_NAME":"EARTH","BSTAR":"0.00013418000000","REF_FRAME":"TEME","ELEMENT_SET_NO":"999","ARG_OF_PERICENTER":"8.2406","OBJECT_TYPE":"PAYLOAD","MEAN_ELEMENT_THEORY":"SGP4","MEAN_MOTION_DOT":"0.00018246","TLE_LINE2":"2 47676  53.0429 158.3067 0003878   8.2406 154.4523 15.73184997  3675","PERIOD":"91.534","SEMIMAJOR_AXIS":"6727.938","PERIAPSIS":"347.194","OBJECT_ID":"2021-012BJ","TIME_SYSTEM":"UTC","RA_OF_ASC_NODE":"158.3067","MEAN_MOTION":"15.73184997","ECCENTRICITY":"0.00038780","APOAPSIS":"352.412","MEAN_ANOMALY":"154.4523","GP_ID":"184409720","FILE":"3111873","CLASSIFICATION_TYPE":"U","REV_AT_EPOCH":"367","DECAY_DATE":null,"EPHEMERIS_TYPE":"0","SITE":"AFETR","NORAD_CAT_ID":"47676","INCLINATION":"53.0429","COUNTRY_CODE":"US","EPOCH":"2021-09-10T00:00:02.000160","RCS_SIZE":"LARGE"},{"TLE_LINE2":"2 47677  53.0538 241.4441 0001523  77.7348  62.3553 15.06391958  3570","PERIOD":"95.593","SEMIMAJOR_AXIS":"6925.373","PERIAPSIS":"546.183","ELEMENT_SET_NO":"999","ARG_OF_PERICENTER":"77.7348","MEAN_ELEMENT_THEORY":"SGP4","MEAN_MOTION_DOT":"0.00003749","OBJECT_TYPE":"PAYLOAD","TLE_LINE1":"1 47677U 21012BK  21253.00002315  .00003749  00000-0  27051-3 0  9992","OBJECT_NAME":"STARLINK-2090","CENTER_NAME":"EARTH","BSTAR":"0.00027051000000","REF_FRAME":"TEME","LAUNCH_DATE":"2021-02-16","MEAN_MOTION_DDOT":"0.0000000000000","INCLINATION":"53.0538","EPOCH":"2021-09-10T00:00:02.000160","COUNTRY_CODE":"US","RCS_SIZE":"LARGE","CLASSIFICATION_TYPE":"U","REV_AT_EPOCH":"357","EPHEMERIS_TYPE":"0","DECAY_DATE":null,"SITE":"AFETR","NORAD_CAT_ID":"47677","ECCENTRICITY":"0.00015230","APOAPSIS":"548.293","MEAN_ANOMALY":"62.3553","GP_ID":"184407979","FILE":"3111873","TIME_SYSTEM":"UTC","OBJECT_ID":"2021-012BK","RA_OF_ASC_NODE":"241.4441","MEAN_MOTION":"15.06391958"},{"RA_OF_ASC_NODE":"158.3079","MEAN_MOTION":"15.73358676","TIME_SYSTEM":"UTC","OBJECT_ID":"2021-012BL","GP_ID":"184408229","FILE":"3111873","ECCENTRICITY":"0.00039010","MEAN_ANOMALY":"153.3877","APOAPSIS":"351.932","SITE":"AFETR","NORAD_CAT_ID":"47678","CLASSIFICATION_TYPE":"U","REV_AT_EPOCH":"367","EPHEMERIS_TYPE":"0","DECAY_DATE":null,"EPOCH":"2021-09-10T00:00:02.000160","COUNTRY_CODE":"US","RCS_SIZE":"LARGE","INCLINATION":"53.0429","MEAN_MOTION_DDOT":"0.0000000000000","LAUNCH_DATE":"2021-02-16","BSTAR":"-0.00120000000000","REF_FRAME":"TEME","TLE_LINE1":"1 47678U 21012BL  21253.00002315 -.00166994  00000-0 -12000-2 0  9994","OBJECT_NAME":"STARLINK-2091","CENTER_NAME":"EARTH","ARG_OF_PERICENTER":"8.3336","MEAN_MOTION_DOT":"-0.00166994","MEAN_ELEMENT_THEORY":"SGP4","OBJECT_TYPE":"PAYLOAD","ELEMENT_SET_NO":"999","PERIAPSIS":"346.683","TLE_LINE2":"2 47678  53.0429 158.3079 0003901   8.3336 153.3877 15.73358676  3677","PERIOD":"91.524","SEMIMAJOR_AXIS":"6727.443"},{"FILE":"3111873","GP_ID":"184408981","APOAPSIS":"548.491","MEAN_ANOMALY":"276.9647","ECCENTRICITY":"0.00014790","MEAN_MOTION":"15.06317511","RA_OF_ASC_NODE":"241.4563","OBJECT_ID":"2021-012BM","TIME_SYSTEM":"UTC","RCS_SIZE":"LARGE","EPOCH":"2021-09-10T00:00:02.000160","COUNTRY_CODE":"US","INCLINATION":"53.0531","NORAD_CAT_ID":"47679","SITE":"AFETR","EPHEMERIS_TYPE":"0","DECAY_DATE":null,"CLASSIFICATION_TYPE":"U","REV_AT_EPOCH":"356","REF_FRAME":"TEME","BSTAR":"0.00811950000000","OBJECT_NAME":"STARLINK-2095","CENTER_NAME":"EARTH","TLE_LINE1":"1 47679U 21012BM  21253.00002315  .00122503  00000-0  81195-2 0  9992","MEAN_MOTION_DDOT":"0.0000000000000","LAUNCH_DATE":"2021-02-16","PERIAPSIS":"546.442","PERIOD":"95.597","SEMIMAJOR_AXIS":"6925.601","TLE_LINE2":"2 47679  53.0531 241.4563 0001479  68.2533 276.9647 15.06317511  3560","MEAN_MOTION_DOT":"0.00122503","MEAN_ELEMENT_THEORY":"SGP4","OBJECT_TYPE":"PAYLOAD","ARG_OF_PERICENTER":"68.2533","ELEMENT_SET_NO":"999"},{"INCLINATION":"53.0575","EPOCH":"2021-09-09T18:10:20.921376","COUNTRY_CODE":"US","RCS_SIZE":"LARGE","CLASSIFICATION_TYPE":"U","REV_AT_EPOCH":"3051","EPHEMERIS_TYPE":"0","DECAY_DATE":null,"SITE":"AFETR","NORAD_CAT_ID":"47722","ECCENTRICITY":"0.00014760","MEAN_ANOMALY":"227.0000","APOAPSIS":"548.252","GP_ID":"184409725","FILE":"3111873","OBJECT_ID":"2021-017A","TIME_SYSTEM":"UTC","MEAN_MOTION":"15.06394678","RA_OF_ASC_NODE":"7.5300","TLE_LINE2":"2 47722  53.0575   7.5300 0001476 133.1112 227.0000 15.06394678 30513","SEMIMAJOR_AXIS":"6925.365","PERIOD":"95.592","PERIAPSIS":"546.208","ELEMENT_SET_NO":"999","ARG_OF_PERICENTER":"133.1112","MEAN_ELEMENT_THEORY":"SGP4","MEAN_MOTION_DOT":"0.00000550","OBJECT_TYPE":"PAYLOAD","TLE_LINE1":"1 47722U 21017A   21252.75718659  .00000550  00000-0  55797-4 0  9990","OBJECT_NAME":"STARLINK-2068","CENTER_NAME":"EARTH","BSTAR":"0.00005579700000","REF_FRAME":"TEME","LAUNCH_DATE":"2021-03-04","MEAN_MOTION_DDOT":"0.0000000000000"},{"LAUNCH_DATE":"2021-03-04","MEAN_MOTION_DDOT":"0.0000000000000","OBJECT_NAME":"STARLINK-2107","CENTER_NAME":"EARTH","TLE_LINE1":"1 47723U 21017B   21252.68696643  .00014944  00000-0  11039-3 0  9993","REF_FRAME":"TEME","BSTAR":"0.00011039000000","ELEMENT_SET_NO":"999","OBJECT_TYPE":"PAYLOAD","MEAN_MOTION_DOT":"0.00014944","MEAN_ELEMENT_THEORY":"SGP4","ARG_OF_PERICENTER":"351.4513","PERIOD":"91.530","SEMIMAJOR_AXIS":"6727.734","TLE_LINE2":"2 47723  53.0434 323.1345 0004945 351.4513   8.6420 15.73256625 31094","PERIAPSIS":"346.272","TIME_SYSTEM":"UTC","OBJECT_ID":"2021-017B","RA_OF_ASC_NODE":"323.1345","MEAN_MOTION":"15.73256625","MEAN_ANOMALY":"8.6420","APOAPSIS":"352.926","ECCENTRICITY":"0.00049450","FILE":"3111873","GP_ID":"184407984","DECAY_DATE":null,"EPHEMERIS_TYPE":"0","CLASSIFICATION_TYPE":"U","REV_AT_EPOCH":"3109","NORAD_CAT_ID":"47723","SITE":"AFETR","INCLINATION":"53.0434","RCS_SIZE":"LARGE","COUNTRY_CODE":"US","EPOCH":"2021-09-09T16:29:13.899552"},{"INCLINATION":"53.0433","EPOCH":"2021-09-09T14:57:36.050688","COUNTRY_CODE":"US","RCS_SIZE":"LARGE","CLASSIFICATION_TYPE":"U","REV_AT_EPOCH":"3105","EPHEMERIS_TYPE":"0","DECAY_DATE":null,"SITE":"AFETR","NORAD_CAT_ID":"47724","ECCENTRICITY":"0.00056080","MEAN_ANOMALY":"10.3707","APOAPSIS":"353.339","GP_ID":"184408234","FILE":"3111873","OBJECT_ID":"2021-017C","TIME_SYSTEM":"UTC","RA_OF_ASC_NODE":"323.4525","MEAN_MOTION":"15.73267960","TLE_LINE2":"2 47724  53.0433 323.4525 0005608 349.7195  10.3707 15.73267960 31058","PERIOD":"91.529","SEMIMAJOR_AXIS":"6727.701","PERIAPSIS":"345.794","ELEMENT_SET_NO":"999","ARG_OF_PERICENTER":"349.7195","MEAN_ELEMENT_THEORY":"SGP4","MEAN_MOTION_DOT":"0.00027286","OBJECT_TYPE":"PAYLOAD","TLE_LINE1":"1 47724U 21017C   21252.62333392  .00027286  00000-0  19747-3 0  9994","OBJECT_NAME":"STARLINK-2116","CENTER_NAME":"EARTH","BSTAR":"0.00019747000000","REF_FRAME":"TEME","LAUNCH_DATE":"2021-03-04","MEAN_MOTION_DDOT":"0.0000000000000"},{"INCLINATION":"53.0573","RCS_SIZE":"LARGE","EPOCH":"2021-09-09T17:25:56.353152","COUNTRY_CODE":"US","EPHEMERIS_TYPE":"0","DECAY_DATE":null,"REV_AT_EPOCH":"3038","CLASSIFICATION_TYPE":"U","NORAD_CAT_ID":"47725","SITE":"AFETR","MEAN_ANOMALY":"242.9635","APOAPSIS":"548.094","ECCENTRICITY":"0.00012670","FILE":"3111873","GP_ID":"184408986","OBJECT_ID":"2021-017D","TIME_SYSTEM":"UTC","MEAN_MOTION":"15.06399123","RA_OF_ASC_NODE":"12.6661","PERIOD":"95.592","SEMIMAJOR_AXIS":"6925.351","TLE_LINE2":"2 47725  53.0573  12.6661 0001267 117.1484 242.9635 15.06399123 30388","PERIAPSIS":"546.339","ELEMENT_SET_NO":"999","MEAN_MOTION_DOT":"-0.00000259","MEAN_ELEMENT_THEORY":"SGP4","OBJECT_TYPE":"PAYLOAD","ARG_OF_PERICENTER":"117.1484","CENTER_NAME":"EARTH","OBJECT_NAME":"STARLINK-2125","TLE_LINE1":"1 47725U 21017D   21252.72634668 -.00000259  00000-0  14875-5 0  9997","REF_FRAME":"TEME","BSTAR":"0.00000148750000","LAUNCH_DATE":"2021-03-04","MEAN_MOTION_DDOT":"0.0000000000000"}];
